OBJECT_NAME,OBJECT_ID,EPOCH,MEAN_MOTION,ECCENTRICITY,INCLINATION,RA_OF_ASC_NODE,ARG_OF_PERICENTER,MEAN_ANOMALY,EPHEMERIS_TYPE,CLASSIFICATION_TYPE,NORAD_CAT_ID,ELEMENT_SET_NO,REV_AT_EPOCH,BSTAR,MEAN_MOTION_DOT,MEAN_MOTION_DDOT
SIRION PATHFINDER-2,2018-099B,2026-06-15T09:32:59.055936,15.14534921,.0007291,97.4254,215.4978,312.7494,47.3124,0,U,43759,999,41235,.21367E-3,.3874E-4,0
CORVUS BC4,2018-099K,2026-06-15T01:42:36.622080,15.12480609,.0008503,97.4064,209.1132,19.7922,340.3637,0,U,43767,999,41208,.25988945E-3,.4462E-4,0
M2 PATHFINDER,2020-037E,2026-06-15T12:24:58.099104,15.04671269,.0012395,97.8148,357.7305,151.1076,209.0839,0,U,45727,999,32524,.13068E-3,.1776E-4,0
NETSAT-4,2020-068U,2026-06-15T12:06:21.863808,15.43817170,.0004199,97.8595,174.6096,345.7868,14.3259,0,U,46504,999,31551,.33806E-3,.15231E-3,0
NETSAT-3,2020-068V,2026-06-14T23:46:16.582944,15.42612738,.00045011,97.8646,172.2736,9.9261,350.2074,0,U,46505,999,31534,.3878366E-3,.16798E-3,0
NETSAT-1,2020-068W,2026-06-15T12:07:39.793152,15.34609681,.0005232,97.8738,167.1803,37.4454,322.7152,0,U,46506,999,31504,.31631E-3,.10527E-3,0
NETSAT-2,2020-068X,2026-06-15T11:34:10.172352,15.45935671,.0003624,97.8608,174.4740,32.2170,327.9299,0,U,46507,999,31547,.38807E-3,.18814E-3,0
GREENCUBE (IO-117),2022-080E,2026-06-13T07:02:28.697280,6.42583230,.00089108,70.1444,299.5995,290.4576,69.5127,0,U,53109,999,9181,0,-.3E-7,0
SITRO-AIS 5 (KATYS),2023-091L,2026-06-15T11:59:40.558272,15.29424163,.0012796,97.5064,230.3828,108.7330,251.5300,0,U,57176,999,16408,.35431E-3,.10059E-3,0
SITRO-AIS 6 (CHIRKIN),2023-091AC,2026-06-15T11:23:45.572928,15.25906799,.0013103,97.5072,229.4859,111.7066,248.5568,0,U,57192,999,16402,.33627E-3,.857E-4,0
SITRO-AIS 8 (ANOKHIN),2023-091AD,2026-06-15T12:28:26.163264,15.32097703,.0011808,97.5061,231.9849,105.0182,255.2367,0,U,57193,999,16419,.409E-3,.12629E-3,0
SITRO-AIS 7 (FARTUSHNIY),2023-091AE,2026-06-15T11:27:47.426400,15.25595713,.001294,97.5069,229.3145,112.6838,247.5769,0,U,57194,999,16401,.33511E-3,.846E-4,0
SITRO-AIS 10 (BURDAEV),2023-091AK,2026-06-15T11:50:17.880000,15.38556689,.0007635,97.5086,236.9946,85.3102,274.9015,0,U,57199,999,16450,.44257E-3,.16792E-3,0
SITRO-AIS 9 (SHCHUKIN),2023-091AM,2026-06-15T12:27:32.219424,15.38067284,.0007856,97.5084,236.7525,85.4318,274.7824,0,U,57201,999,16449,.41832E-3,.15615E-3,0
SITRO-AIS 12 (SMIRENNIY),2023-091AQ,2026-06-15T12:14:29.338656,15.38359989,.0007408,97.5097,237.2094,80.3744,279.8337,0,U,57204,999,16451,.44566E-3,.16801E-3,0
SITRO-AIS 11 (SHEFFER),2023-091AU,2026-06-15T12:34:28.289856,15.38785184,.0007292,97.5096,237.4690,80.3258,279.8810,0,U,57208,999,16453,.44057E-3,.16839E-3,0
SITRO-AIS 25,2024-039R,2026-06-15T12:00:17.419104,14.93505966,.014369,95.3911,233.9332,334.7079,24.7157,0,U,59066,999,12447,.16608E-3,.2106E-4,0
SITRO-AIS 26,2024-039S,2026-06-15T12:01:56.144928,14.93302004,.0144036,95.3911,233.8320,335.2857,24.1512,0,U,59067,999,12446,.16214E-3,.2045E-4,0
SITRO-AIS 27,2024-039T,2026-06-15T12:56:14.381376,14.93723601,.0142952,95.3917,234.1287,333.7970,25.6069,0,U,59068,999,12449,.21719E-3,.2776E-4,0
SITRO-AIS 28,2024-039U,2026-06-15T12:23:48.560064,14.93754998,.014289,95.3914,234.1605,333.6706,25.7305,0,U,59071,999,12449,.20659E-3,.2641E-4,0
GRBBETA,2024-128C,2026-06-15T11:52:01.565184,15.06630585,.0040851,61.9889,222.2055,134.3380,226.1074,0,U,60237,999,10601,.20649E-3,.2913E-4,0
OOV-CUBE (TUBSAT-30),2024-128F,2026-06-15T12:36:06.365088,15.02768621,.0044801,61.9945,231.3695,133.3221,227.1619,0,U,60240,999,10586,.14574E-3,.1784E-4,0
ROBUSTA-3A (MEDITERRANEE),2024-128J,2026-06-15T11:32:52.840032,15.11661934,.0041531,61.9852,214.2780,127.7723,232.7146,0,U,60243,999,10616,.29892E-3,.4988E-4,0
LASARSAT,2024-247Q,2026-06-13T14:48:20.082240,15.46168743,.0008375,44.9751,282.2745,311.5212,48.4959,0,U,62391,999,8276,.65515E-3,.32689E-3,0
CROCUBE,2024-247T,2026-06-14T14:05:15.116064,15.48102542,.0008187,44.9722,274.1999,320.7516,39.2780,0,U,62394,999,8294,.65094E-3,.34757E-3,0
FORESAIL-1 PRIME,2025-276DS,2026-06-15T03:38:26.750400,15.18685264,.00039386,97.4203,239.4592,109.0976,251.0685,0,U,66778,999,3009,.21912264E-3,.4477E-4,0
KNACKSAT-2,1998-067XZ,2026-06-14T15:50:06.120384,15.59771864,.00094076,51.6308,307.1872,204.1419,155.9135,0,U,67683,999,1988,.5515425E-3,.44887E-3,0
