SIRION PATHFINDER-2     
1 43759U 18099B   26166.39790574  .00003874  00000+0  21367-3 0  9993
2 43759  97.4254 215.4978 0007291 312.7494  47.3124 15.14534921412357
CORVUS BC4              
1 43767U 18099K   26166.07125720  .00004462  00000+0  25989-3 0  9990
2 43767  97.4064 209.1132 0008503  19.7922 340.3637 15.12480609412080
M2 PATHFINDER           
1 45727U 20037E   26166.51733911  .00001776  00000+0  13068-3 0  9999
2 45727  97.8148 357.7305 0012395 151.1076 209.0839 15.04671269325243
NETSAT-4                
1 46504U 20068U   26166.50441972  .00015231  00000+0  33806-3 0  9992
2 46504  97.8595 174.6096 0004199 345.7868  14.3259 15.43817170315517
NETSAT-3                
1 46505U 20068V   26165.99046971  .00016798  00000+0  38784-3 0  9994
2 46505  97.8646 172.2736 0004501   9.9261 350.2074 15.42612738315343
NETSAT-1                
1 46506U 20068W   26166.50532168  .00010527  00000+0  31631-3 0  9999
2 46506  97.8738 167.1803 0005232  37.4454 322.7152 15.34609681315048
NETSAT-2                
1 46507U 20068X   26166.48206218  .00018814  00000+0  38807-3 0  9990
2 46507  97.8608 174.4740 0003624  32.2170 327.9299 15.45935671315476
GREENCUBE (IO-117)      
1 53109U 22080E   26164.29338770 -.00000003  00000+0  00000+0 0  9990
2 53109  70.1444 299.5995 0008910 290.4576  69.5127  6.42583230 91811
SITRO-AIS 5 (KATYS)     
1 57176U 23091L   26166.49977498  .00010059  00000+0  35431-3 0  9992
2 57176  97.5064 230.3828 0012796 108.7330 251.5300 15.29424163164084
SITRO-AIS 6 (CHIRKIN)   
1 57192U 23091AC  26166.47483302  .00008570  00000+0  33627-3 0  9994
2 57192  97.5072 229.4859 0013103 111.7066 248.5568 15.25906799164029
SITRO-AIS 8 (ANOKHIN)   
1 57193U 23091AD  26166.51974726  .00012629  00000+0  40900-3 0  9997
2 57193  97.5061 231.9849 0011808 105.0182 255.2367 15.32097703164194
SITRO-AIS 7 (FARTUSHNIY)
1 57194U 23091AE  26166.47763225  .00008460  00000+0  33511-3 0  9991
2 57194  97.5069 229.3145 0012940 112.6838 247.5769 15.25595713164010
SITRO-AIS 10 (BURDAEV)  
1 57199U 23091AK  26166.49326250  .00016792  00000+0  44257-3 0  9997
2 57199  97.5086 236.9946 0007635  85.3102 274.9015 15.38556689164507
SITRO-AIS 9 (SHCHUKIN)  
1 57201U 23091AM  26166.51912291  .00015615  00000+0  41832-3 0  9999
2 57201  97.5084 236.7525 0007856  85.4318 274.7824 15.38067284164497
SITRO-AIS 12 (SMIRENNIY)
1 57204U 23091AQ  26166.51006179  .00016801  00000+0  44566-3 0  9996
2 57204  97.5097 237.2094 0007408  80.3744 279.8337 15.38359989164515
SITRO-AIS 11 (SHEFFER)  
1 57208U 23091AU  26166.52393854  .00016839  00000+0  44057-3 0  9996
2 57208  97.5096 237.4690 0007292  80.3258 279.8810 15.38785184164531
SITRO-AIS 25            
1 59066U 24039R   26166.50020161  .00002106  00000+0  16608-3 0  9992
2 59066  95.3911 233.9332 0143690 334.7079  24.7157 14.93505966124479
SITRO-AIS 26            
1 59067U 24039S   26166.50134427  .00002045  00000+0  16214-3 0  9999
2 59067  95.3911 233.8320 0144036 335.2857  24.1512 14.93302004124467
SITRO-AIS 27            
1 59068U 24039T   26166.53905534  .00002776  00000+0  21719-3 0  9995
2 59068  95.3917 234.1287 0142952 333.7970  25.6069 14.93723601124490
SITRO-AIS 28            
1 59071U 24039U   26166.51653426  .00002641  00000+0  20659-3 0  9990
2 59071  95.3914 234.1605 0142890 333.6706  25.7305 14.93754998124499
GRBBETA                 
1 60237U 24128C   26166.49446256  .00002913  00000+0  20649-3 0  9994
2 60237  61.9889 222.2055 0040851 134.3380 226.1074 15.06630585106018
OOV-CUBE (TUBSAT-30)    
1 60240U 24128F   26166.52507367  .00001784  00000+0  14574-3 0  9998
2 60240  61.9945 231.3695 0044801 133.3221 227.1619 15.02768621105865
ROBUSTA-3A (MEDITERRAN*)
1 60243U 24128J   26166.48116713  .00004988  00000+0  29892-3 0  9995
2 60243  61.9852 214.2780 0041531 127.7723 232.7146 15.11661934106161
LASARSAT                
1 62391U 24247Q   26164.61689910  .00032689  00000+0  65515-3 0  9991
2 62391  44.9751 282.2745 0008375 311.5212  48.4959 15.46168743 82768
CROCUBE                 
1 62394U 24247T   26165.58698051  .00034757  00000+0  65094-3 0  9997
2 62394  44.9722 274.1999 0008187 320.7516  39.2780 15.48102542 82947
FORESAIL-1 PRIME        
1 66778U 25276DS  26166.15169850  .00004477  00000+0  21912-3 0  9991
2 66778  97.4203 239.4592 0003938 109.0976 251.0685 15.18685264 30095
KNACKSAT-2              
1 67683U 98067XZ  26165.65979306  .00044887  00000+0  55154-3 0  9998
2 67683  51.6308 307.1872 0009407 204.1419 155.9135 15.59771864 19882
